{"type": "FeatureCollection", "features": [ {"type": "Feature", "properties": {"norad_id": 67141, "name": "KUIPER-00187", "group": "last-30-days", "lat": 6.795898997844528, "lon": 64.41762399276881, "alt_km": 459.1999914181024, "timestamp": "2025-12-26T10:30:48.978835+00:00", "meta": {"OBJECT_NAME": "KUIPER-00187", "OBJECT_ID": "2025-301J", "EPOCH": "2025-12-26T04:13:45.825312", "MEAN_MOTION": 15.35833393, "ECCENTRICITY": 0.0004329, "INCLINATION": 51.8713, "RA_OF_ASC_NODE": 60.3104, "ARG_OF_PERICENTER": 116.5502, "MEAN_ANOMALY": 243.5929, "EPHEMERIS_TYPE": 0, "CLASSIFICATION_TYPE": "U", "NORAD_CAT_ID": 67141, "ELEMENT_SET_NO": 999, "REV_AT_EPOCH": 243, "BSTAR": 0.00049997, "MEAN_MOTION_DOT": 0.0001736, "MEAN_MOTION_DDOT": 0}, "tle": {"line1": "1 67141U 25301J   25360.17622483  .00017360  00000+0  49997-3 0  9996", "line2": "2 67141  51.8713  60.3104 0004329 116.5502 243.5929 15.35833393  2434"}}, "geometry": {"type": "Point", "coordinates": [64.41762399276881, 6.795898997844528]}}, {"type": "Feature", "properties": {"norad_id": 67142, "name": "KUIPER-00188", "group": "last-30-days", "lat": -18.839259497341608, "lon": 43.56811639801683, "alt_km": 468.6937557200745, "timestamp": "2025-12-26T10:30:48.978845+00:00", "meta": {"OBJECT_NAME": "KUIPER-00188", "OBJECT_ID": "2025-301K", "EPOCH": "2025-12-26T02:48:21.819744", "MEAN_MOTION": 15.34926443, "ECCENTRICITY": 0.0007359, "INCLINATION": 51.8692, "RA_OF_ASC_NODE": 60.6622, "ARG_OF_PERICENTER": 135.6668, "MEAN_ANOMALY": 224.4908, "EPHEMERIS_TYPE": 0, "CLASSIFICATION_TYPE": "U", "NORAD_CAT_ID": 67142, "ELEMENT_SET_NO": 999, "REV_AT_EPOCH": 242, "BSTAR": 0.00064085, "MEAN_MOTION_DOT": 0.00021737, "MEAN_MOTION_DDOT": 0}, "tle": {"line1": "1 67142U 25301K   25360.11691921  .00021737  00000+0  64085-3 0  9992", "line2": "2 67142  51.8692  60.6622 0007359 135.6668 224.4908 15.34926443  2422"}}, "geometry": {"type": "Point", "coordinates": [43.56811639801683, -18.839259497341608]}}, {"type": "Feature", "properties": {"norad_id": 67143, "name": "KUIPER-00191", "group": "last-30-days", "lat": -12.27853447948669, "lon": 49.25295299282943, "alt_km": 466.51224649857613, "timestamp": "2025-12-26T10:30:48.978855+00:00", "meta": {"OBJECT_NAME": "KUIPER-00191", "OBJECT_ID": "2025-301L", "EPOCH": "2025-12-26T01:12:27.842400", "MEAN_MOTION": 15.3516237, "ECCENTRICITY": 0.0006769, "INCLINATION": 51.8667, "RA_OF_ASC_NODE": 60.9674, "ARG_OF_PERICENTER": 131.5062, "MEAN_ANOMALY": 228.6505, "EPHEMERIS_TYPE": 0, "CLASSIFICATION_TYPE": "U", "NORAD_CAT_ID": 67143, "ELEMENT_SET_NO": 999, "REV_AT_EPOCH": 244, "BSTAR": 0.00094101, "MEAN_MOTION_DOT": 0.00032385, "MEAN_MOTION_DDOT": 0}, "tle": {"line1": "1 67143U 25301L   25360.05032225  .00032385  00000+0  94101-3 0  9995", "line2": "2 67143  51.8667  60.9674 0006769 131.5062 228.6505 15.35162370  2445"}}, "geometry": {"type": "Point", "coordinates": [49.25295299282943, -12.27853447948669]}}, {"type": "Feature", "properties": {"norad_id": 67144, "name": "KUIPER-00196", "group": "last-30-days", "lat": 13.267169487005305, "lon": 69.69917620687603, "alt_km": 456.378275729061, "timestamp": "2025-12-26T10:30:48.978865+00:00", "meta": {"OBJECT_NAME": "KUIPER-00196", "OBJECT_ID": "2025-301M", "EPOCH": "2025-12-26T04:11:39.157728", "MEAN_MOTION": 15.36037834, "ECCENTRICITY": 0.000387, "INCLINATION": 51.8728, "RA_OF_ASC_NODE": 60.2981, "ARG_OF_PERICENTER": 99.5207, "MEAN_ANOMALY": 260.6217, "EPHEMERIS_TYPE": 0, "CLASSIFICATION_TYPE": "U", "NORAD_CAT_ID": 67144, "ELEMENT_SET_NO": 999, "REV_AT_EPOCH": 243, "BSTAR": 0.00059609, "MEAN_MOTION_DOT": 0.00020919, "MEAN_MOTION_DDOT": 0}, "tle": {"line1": "1 67144U 25301M   25360.17475877  .00020919  00000+0  59609-3 0  9997", "line2": "2 67144  51.8728  60.2981 0003870  99.5207 260.6217 15.36037834  2434"}}, "geometry": {"type": "Point", "coordinates": [69.69917620687603, 13.267169487005305]}}, {"type": "Feature", "properties": {"norad_id": 67145, "name": "KUIPER-00204", "group": "last-30-days", "lat": 27.329642169732317, "lon": 82.92856108779628, "alt_km": 451.7592697070304, "timestamp": "2025-12-26T10:30:48.978875+00:00", "meta": {"OBJECT_NAME": "KUIPER-00204", "OBJECT_ID": "2025-301N", "EPOCH": "2025-12-26T02:33:15.170112", "MEAN_MOTION": 15.36547563, "ECCENTRICITY": 0.0001993, "INCLINATION": 51.875, "RA_OF_ASC_NODE": 60.5852, "ARG_OF_PERICENTER": 67.153, "MEAN_ANOMALY": 292.9667, "EPHEMERIS_TYPE": 0, "CLASSIFICATION_TYPE": "U", "NORAD_CAT_ID": 67145, "ELEMENT_SET_NO": 999, "REV_AT_EPOCH": 253, "BSTAR": 0.0010244, "MEAN_MOTION_DOT": 0.00036906, "MEAN_MOTION_DDOT": 0}, "tle": {"line1": "1 67145U 25301N   25360.10642558  .00036906  00000+0  10244-2 0  9997", "line2": "2 67145  51.8750  60.5852 0001993  67.1530 292.9667 15.36547563  2537"}}, "geometry": {"type": "Point", "coordinates": [82.92856108779628, 27.329642169732317]}}, {"type": "Feature", "properties": {"norad_id": 67146, "name": "KUIPER-00210", "group": "last-30-days", "lat": -38.6105828497483, "lon": 20.304854229830717, "alt_km": 474.17805641197174, "timestamp": "2025-12-26T10:30:48.978885+00:00", "meta": {"OBJECT_NAME": "KUIPER-00210", "OBJECT_ID": "2025-301P", "EPOCH": "2025-12-26T04:29:20.237856", "MEAN_MOTION": 15.34182837, "ECCENTRICITY": 0.0010632, "INCLINATION": 51.8599, "RA_OF_ASC_NODE": 60.3812, "ARG_OF_PERICENTER": 149.4699, "MEAN_ANOMALY": 210.6907, "EPHEMERIS_TYPE": 0, "CLASSIFICATION_TYPE": "U", "NORAD_CAT_ID": 67146, "ELEMENT_SET_NO": 999, "REV_AT_EPOCH": 260, "BSTAR": 0.00093457, "MEAN_MOTION_DOT": 0.00031191, "MEAN_MOTION_DDOT": 0}, "tle": {"line1": "1 67146U 25301P   25360.18703979  .00031191  00000+0  93457-3 0  9990", "line2": "2 67146  51.8599  60.3812 0010632 149.4699 210.6907 15.34182837  2602"}}, "geometry": {"type": "Point", "coordinates": [20.304854229830717, -38.6105828497483]}}, {"type": "Feature", "properties": {"norad_id": 67147, "name": "KUIPER-00221", "group": "last-30-days", "lat": 4.126427864019896, "lon": 62.30190734039089, "alt_km": 460.04787234957894, "timestamp": "2025-12-26T10:30:48.978897+00:00", "meta": {"OBJECT_NAME": "KUIPER-00221", "OBJECT_ID": "2025-301Q", "EPOCH": "2025-12-26T04:14:37.724928", "MEAN_MOTION": 15.35742678, "ECCENTRICITY": 0.0004935, "INCLINATION": 51.8727, "RA_OF_ASC_NODE": 60.3142, "ARG_OF_PERICENTER": 114.9749, "MEAN_ANOMALY": 245.175, "EPHEMERIS_TYPE": 0, "CLASSIFICATION_TYPE": "U", "NORAD_CAT_ID": 67147, "ELEMENT_SET_NO": 999, "REV_AT_EPOCH": 243, "BSTAR": 0.0010608, "MEAN_MOTION_DOT": 0.0003726, "MEAN_MOTION_DDOT": 0}, "tle": {"line1": "1 67147U 25301Q   25360.17682552  .00037260  00000+0  10608-2 0  9992", "line2": "2 67147  51.8727  60.3142 0004935 114.9749 245.1750 15.35742678  2430"}}, "geometry": {"type": "Point", "coordinates": [62.30190734039089, 4.126427864019896]}}, {"type": "Feature", "properties": {"norad_id": 67148, "name": "KUIPER-00232", "group": "last-30-days", "lat": 31.82482185902736, "lon": 88.14382961463129, "alt_km": 450.932262351329, "timestamp": "2025-12-26T10:30:48.978907+00:00", "meta": {"OBJECT_NAME": "KUIPER-00232", "OBJECT_ID": "2025-301R", "EPOCH": "2025-12-26T02:31:38.687232", "MEAN_MOTION": 15.36718132, "ECCENTRICITY": 0.0001263, "INCLINATION": 51.8753, "RA_OF_ASC_NODE": 60.5814, "ARG_OF_PERICENTER": 71.2242, "MEAN_ANOMALY": 288.8881, "EPHEMERIS_TYPE": 0, "CLASSIFICATION_TYPE": "U", "NORAD_CAT_ID": 67148, "ELEMENT_SET_NO": 999, "REV_AT_EPOCH": 242, "BSTAR": 0.00097932, "MEAN_MOTION_DOT": 0.00035452, "MEAN_MOTION_DDOT": 0}, "tle": {"line1": "1 67148U 25301R   25360.10530888  .00035452  00000+0  97932-3 0  9997", "line2": "2 67148  51.8753  60.5814 0001263  71.2242 288.8881 15.36718132  2429"}}, "geometry": {"type": "Point", "coordinates": [88.14382961463129, 31.82482185902736]}}, {"type": "Feature", "properties": {"norad_id": 67149, "name": "KUIPER-00241", "group": "last-30-days", "lat": 19.17081079966276, "lon": 74.85380835063049, "alt_km": 454.75644114852, "timestamp": "2025-12-26T10:30:48.978917+00:00", "meta": {"OBJECT_NAME": "KUIPER-00241", "OBJECT_ID": "2025-301S", "EPOCH": "2025-12-26T02:36:01.777824", "MEAN_MOTION": 15.3625669, "ECCENTRICITY": 0.0002826, "INCLINATION": 51.8753, "RA_OF_ASC_NODE": 60.6008, "ARG_OF_PERICENTER": 104.4348, "MEAN_ANOMALY": 255.6952, "EPHEMERIS_TYPE": 0, "CLASSIFICATION_TYPE": "U", "NORAD_CAT_ID": 67149, "ELEMENT_SET_NO": 999, "REV_AT_EPOCH": 275, "BSTAR": 0.0012458, "MEAN_MOTION_DOT": 0.00044592, "MEAN_MOTION_DDOT": 0}, "tle": {"line1": "1 67149U 25301S   25360.10835391  .00044592  00000+0  12458-2 0  9999", "line2": "2 67149  51.8753  60.6008 0002826 104.4348 255.6952 15.36256690  2751"}}, "geometry": {"type": "Point", "coordinates": [74.85380835063049, 19.17081079966276]}}, {"type": "Feature", "properties": {"norad_id": 67150, "name": "KUIPER-00245", "group": "last-30-days", "lat": 1.4841736694316014, "lon": 60.225153814680176, "alt_km": 461.1498451798243, "timestamp": "2025-12-26T10:30:48.978929+00:00", "meta": {"OBJECT_NAME": "KUIPER-00245", "OBJECT_ID": "2025-301T", "EPOCH": "2025-12-26T01:08:03.576768", "MEAN_MOTION": 15.35646167, "ECCENTRICITY": 0.0005152, "INCLINATION": 51.8722, "RA_OF_ASC_NODE": 60.9447, "ARG_OF_PERICENTER": 118.7783, "MEAN_ANOMALY": 241.3721, "EPHEMERIS_TYPE": 0, "CLASSIFICATION_TYPE": "U", "NORAD_CAT_ID": 67150, "ELEMENT_SET_NO": 999, "REV_AT_EPOCH": 241, "BSTAR": 0.00097689, "MEAN_MOTION_DOT": 0.00034161, "MEAN_MOTION_DDOT": 0}, "tle": {"line1": "1 67150U 25301T   25360.04726362  .00034161  00000+0  97689-3 0  9992", "line2": "2 67150  51.8722  60.9447 0005152 118.7783 241.3721 15.35646167  2415"}}, "geometry": {"type": "Point", "coordinates": [60.225153814680176, 1.4841736694316014]}}]}